[{"OBJECT_NAME":"JILIN-1 GAOFEN 03D47","OBJECT_ID":"2022-167L","EPOCH":"2026-03-09T22:56:46.924224","MEAN_MOTION":15.31686941,"ECCENTRICITY":0.00089304,"INCLINATION":97.6835,"RA_OF_ASC_NODE":234.6581,"ARG_OF_PERICENTER":110.4031,"MEAN_ANOMALY":249.8169,"EPHEMERIS_TYPE":0,"CLASSIFICATION_TYPE":"U","NORAD_CAT_ID":54692,"ELEMENT_SET_NO":999,"REV_AT_EPOCH":18014,"BSTAR":0.00047294748,"MEAN_MOTION_DOT":0.00014417,"MEAN_MOTION_DDOT":0},{"OBJECT_NAME":"STARLINK-35490","OBJECT_ID":"2025-243AD","EPOCH":"2026-03-09T21:23:39.699744","MEAN_MOTION":15.30205424,"ECCENTRICITY":9.684e-5,"INCLINATION":53.1591,"RA_OF_ASC_NODE":244.3867,"ARG_OF_PERICENTER":77.0658,"MEAN_ANOMALY":283.0451,"EPHEMERIS_TYPE":0,"CLASSIFICATION_TYPE":"U","NORAD_CAT_ID":66204,"ELEMENT_SET_NO":999,"REV_AT_EPOCH":2068,"BSTAR":0.0012214249,"MEAN_MOTION_DOT":0.00035997,"MEAN_MOTION_DDOT":0}]
